ONEWEB-0509             
1 54127U 22138Q   23277.56382480  .00000106  00000+0  23242-3 0  9994
2 54127  87.9225 141.3405 0001904  79.4890 280.6457 13.19725102 46679
ONEWEB-0510             
1 54128U 22138R   23277.55133739  .00000097  00000+0  20641-3 0  9994
2 54128  87.9207 110.8118 0001878  72.5068 287.6271 13.20772709 49045
ONEWEB-0511             
1 54129U 22138S   23277.56066836  .00000122  00000+0  27236-3 0  9995
2 54129  87.9224 141.3422 0001860  94.2560 265.8786 13.19726233 46709
ONEWEB-0512             
1 54130U 22138T   23277.32531739  .00000035  00000+0  55446-4 0  9998
2 54130  87.9223 141.3879 0002331  81.7416 278.3981 13.19726573 46647
ONEWEB-0513             
1 54131U 22138U   23277.59936226  .00000023  00000+0  25452-4 0  9999
2 54131  87.9222 141.3381 0002462  88.0673 272.0742 13.19724818 46562
ONEWEB-0514             
1 54132U 22138V   23277.56857347  .00000105  00000+0  23004-3 0  9994
2 54132  87.9227 141.3428 0001726  81.0984 279.0344 13.19727374 46699
ONEWEB-0515             
1 54133U 22138W   23277.53869571  .00000032  00000+0  46410-4 0  9990
2 54133  87.9154 110.8428 0001221  52.0636 308.0608 13.20773347 49065
ONEWEB-0516             
1 54134U 22138X   23277.54328270  .00000006  00000+0 -18119-4 0  9995
2 54134  87.9223 141.3441 0001825  76.2062 283.9274 13.19723793 46692
